start=new Date('2022-11-10T00:00:00.000Z').valueOf();
sats=[{"GP_ID":"217273370","CENTER_NAME":"EARTH","RA_OF_ASC_NODE":"139.8091","ELEMENT_SET_NO":"999","CLASSIFICATION_TYPE":"U","MEAN_MOTION_DDOT":"0.0000000000000","ARG_OF_PERICENTER":"116.1414","OBJECT_NAME":"STARLINK-2540","FILE":"3650001","PERIAPSIS":"546.347","APOAPSIS":"548.177","REV_AT_EPOCH":"8505","TIME_SYSTEM":"UTC","MEAN_ELEMENT_THEORY":"SGP4","NORAD_CAT_ID":"48290","MEAN_ANOMALY":"243.9711","EPHEMERIS_TYPE":"0","OBJECT_ID":"2021-036Q","TLE_LINE2":"2 48290  53.0514 139.8091 0001321 116.1414 243.9711 15.06384281 85052","MEAN_MOTION_DOT":"-0.00006012","TLE_LINE1":"1 48290U 21036Q   22313.83198553 -.00006012  00000-0 -38524-3 0  9994","DECAY_DATE":null,"INCLINATION":"53.0514","REF_FRAME":"TEME","ECCENTRICITY":"0.00013210","SITE":"AFETR","PERIOD":"95.593","MEAN_MOTION":"15.06384281","LAUNCH_DATE":"2021-04-29","BSTAR":"-0.00038524000000","SEMIMAJOR_AXIS":"6925.397","RCS_SIZE":"LARGE","EPOCH":"2022-11-09T19:58:03.549792","OBJECT_TYPE":"PAYLOAD","COUNTRY_CODE":"US"},{"SITE":"AFETR","PERIOD":"95.592","ECCENTRICITY":"0.00013660","DECAY_DATE":null,"TLE_LINE1":"1 48291U 21036R   22313.89464745 -.00001330  00000-0 -70412-4 0  9991","MEAN_MOTION_DOT":"-0.00001330","INCLINATION":"53.0522","REF_FRAME":"TEME","TLE_LINE2":"2 48291  53.0522 139.5253 0001366  92.2779 267.8366 15.06398049 85065","OBJECT_ID":"2021-036R","EPHEMERIS_TYPE":"0","MEAN_ANOMALY":"267.8366","NORAD_CAT_ID":"48291","MEAN_ELEMENT_THEORY":"SGP4","TIME_SYSTEM":"UTC","COUNTRY_CODE":"US","OBJECT_TYPE":"PAYLOAD","EPOCH":"2022-11-09T21:28:17.539680","RCS_SIZE":"LARGE","SEMIMAJOR_AXIS":"6925.355","MEAN_MOTION":"15.06398049","LAUNCH_DATE":"2021-04-29","BSTAR":"-0.00007041200000","CLASSIFICATION_TYPE":"U","ELEMENT_SET_NO":"999","RA_OF_ASC_NODE":"139.5253","CENTER_NAME":"EARTH","GP_ID":"217273620","REV_AT_EPOCH":"8506","APOAPSIS":"548.166","FILE":"3650001","PERIAPSIS":"546.274","OBJECT_NAME":"STARLINK-2555","ARG_OF_PERICENTER":"92.2779","MEAN_MOTION_DDOT":"0.0000000000000"},{"OBJECT_TYPE":"PAYLOAD","COUNTRY_CODE":"US","RCS_SIZE":"LARGE","SEMIMAJOR_AXIS":"6925.363","EPOCH":"2022-11-09T20:08:43.113696","MEAN_MOTION":"15.06395306","LAUNCH_DATE":"2021-04-29","BSTAR":"-0.00005684300000","ECCENTRICITY":"0.00016540","PERIOD":"95.592","SITE":"AFETR","OBJECT_ID":"2021-036S","DECAY_DATE":null,"TLE_LINE1":"1 48292U 21036S   22313.83938789 -.00001128  00000-0 -56843-4 0  9997","MEAN_MOTION_DOT":"-0.00001128","REF_FRAME":"TEME","INCLINATION":"53.0550","TLE_LINE2":"2 48292  53.0550 139.9613 0001654  89.3970 270.7209 15.06395306 85636","MEAN_ELEMENT_THEORY":"SGP4","EPHEMERIS_TYPE":"0","NORAD_CAT_ID":"48292","MEAN_ANOMALY":"270.7209","TIME_SYSTEM":"UTC","APOAPSIS":"548.373","REV_AT_EPOCH":"8563","FILE":"3649846","OBJECT_NAME":"STARLINK-2542","PERIAPSIS":"546.082","MEAN_MOTION_DDOT":"0.0000000000000","ARG_OF_PERICENTER":"89.3970","CLASSIFICATION_TYPE":"U","ELEMENT_SET_NO":"999","CENTER_NAME":"EARTH","RA_OF_ASC_NODE":"139.9613","GP_ID":"217248503"},{"SITE":"AFETR","PERIOD":"95.593","ECCENTRICITY":"0.00014400","TLE_LINE1":"1 48293U 21036T   22313.82093517 -.00004718  00000-0 -29818-3 0  9997","MEAN_MOTION_DOT":"-0.00004718","DECAY_DATE":null,"INCLINATION":"53.0526","REF_FRAME":"TEME","TLE_LINE2":"2 48293  53.0526 139.8740 0001440  88.4547 271.6607 15.06382312 85054","OBJECT_ID":"2021-036T","EPHEMERIS_TYPE":"0","NORAD_CAT_ID":"48293","MEAN_ANOMALY":"271.6607","MEAN_ELEMENT_THEORY":"SGP4","TIME_SYSTEM":"UTC","COUNTRY_CODE":"US","OBJECT_TYPE":"PAYLOAD","EPOCH":"2022-11-09T19:42:08.798688","RCS_SIZE":"LARGE","SEMIMAJOR_AXIS":"6925.403","BSTAR":"-0.00029818000000","LAUNCH_DATE":"2021-04-29","MEAN_MOTION":"15.06382312","CLASSIFICATION_TYPE":"U","ELEMENT_SET_NO":"999","CENTER_NAME":"EARTH","RA_OF_ASC_NODE":"139.8740","GP_ID":"217272620","REV_AT_EPOCH":"8505","APOAPSIS":"548.265","FILE":"3650001","OBJECT_NAME":"STARLINK-2550","PERIAPSIS":"546.271","ARG_OF_PERICENTER":"88.4547","MEAN_MOTION_DDOT":"0.0000000000000"},{"COUNTRY_CODE":"US","OBJECT_TYPE":"PAYLOAD","EPOCH":"2022-11-09T19:36:51.094656","SEMIMAJOR_AXIS":"6925.368","RCS_SIZE":"LARGE","LAUNCH_DATE":"2021-04-29","MEAN_MOTION":"15.06393539","BSTAR":"0.00001913600000","PERIOD":"95.593","SITE":"AFETR","ECCENTRICITY":"0.00003110","TLE_LINE2":"2 48294  53.0581 139.8848 0000311 207.4565 152.6407 15.06393539 85053","TLE_LINE1":"1 48294U 21036U   22313.81725804  .00000004  00000-0  19136-4 0  9993","REF_FRAME":"TEME","DECAY_DATE":null,"MEAN_MOTION_DOT":"0.00000004","INCLINATION":"53.0581","OBJECT_ID":"2021-036U","MEAN_ANOMALY":"152.6407","NORAD_CAT_ID":"48294","EPHEMERIS_TYPE":"0","MEAN_ELEMENT_THEORY":"SGP4","TIME_SYSTEM":"UTC","REV_AT_EPOCH":"8505","APOAPSIS":"547.449","FILE":"3650001","OBJECT_NAME":"STARLINK-2533","PERIAPSIS":"547.018","ARG_OF_PERICENTER":"207.4565","MEAN_MOTION_DDOT":"0.0000000000000","CLASSIFICATION_TYPE":"U","ELEMENT_SET_NO":"999","RA_OF_ASC_NODE":"139.8848","CENTER_NAME":"EARTH","GP_ID":"217272870"},{"LAUNCH_DATE":"2021-04-29","BSTAR":"-0.00019659000000","MEAN_MOTION":"15.06387876","COUNTRY_CODE":"US","OBJECT_TYPE":"PAYLOAD","EPOCH":"2022-11-09T19:31:32.447136","RCS_SIZE":"LARGE","SEMIMAJOR_AXIS":"6925.386","EPHEMERIS_TYPE":"0","NORAD_CAT_ID":"48295","MEAN_ANOMALY":"280.4152","MEAN_ELEMENT_THEORY":"SGP4","TIME_SYSTEM":"UTC","SITE":"AFETR","PERIOD":"95.593","ECCENTRICITY":"0.00013430","TLE_LINE1":"1 48295U 21036V   22313.81356999 -.00003207  00000-0 -19659-3 0  9998","INCLINATION":"53.0542","DECAY_DATE":null,"MEAN_MOTION_DOT":"-0.00003207","REF_FRAME":"TEME","TLE_LINE2":"2 48295  53.0542 139.9102 0001343  79.6988 280.4152 15.06387876 85053","OBJECT_ID":"2021-036V","ARG_OF_PERICENTER":"79.6988","MEAN_MOTION_DDOT":"0.0000000000000","REV_AT_EPOCH":"8505","APOAPSIS":"548.181","FILE":"3650001","OBJECT_NAME":"STARLINK-2535","PERIAPSIS":"546.321","CENTER_NAME":"EARTH","RA_OF_ASC_NODE":"139.9102","GP_ID":"217274121","CLASSIFICATION_TYPE":"U","ELEMENT_SET_NO":"999"},{"MEAN_MOTION":"15.06386838","LAUNCH_DATE":"2021-04-29","BSTAR":"-0.00002101900000","RCS_SIZE":"LARGE","SEMIMAJOR_AXIS":"6925.389","EPOCH":"2022-11-09T19:26:13.684704","OBJECT_TYPE":"PAYLOAD","COUNTRY_CODE":"US","TIME_SYSTEM":"UTC","MEAN_ELEMENT_THEORY":"SGP4","EPHEMERIS_TYPE":"0","MEAN_ANOMALY":"79.9499","NORAD_CAT_ID":"48296","OBJECT_ID":"2021-036W","INCLINATION":"53.0577","TLE_LINE1":"1 48296U 21036W   22313.80988061 -.00000594  00000-0 -21019-4 0  9999","DECAY_DATE":null,"MEAN_MOTION_DOT":"-0.00000594","REF_FRAME":"TEME","TLE_LINE2":"2 48296  53.0577 139.9225 0000747 280.1406  79.9499 15.06386838 85051","ECCENTRICITY":"0.00007470","SITE":"AFETR","PERIOD":"95.593","MEAN_MOTION_DDOT":"0.0000000000000","ARG_OF_PERICENTER":"280.1406","PERIAPSIS":"546.737","FILE":"3650001","OBJECT_NAME":"STARLINK-2546","APOAPSIS":"547.771","REV_AT_EPOCH":"8505","GP_ID":"217274373","CENTER_NAME":"EARTH","RA_OF_ASC_NODE":"139.9225","ELEMENT_SET_NO":"999","CLASSIFICATION_TYPE":"U"},{"GP_ID":"217273121","CENTER_NAME":"EARTH","RA_OF_ASC_NODE":"139.9308","ELEMENT_SET_NO":"999","CLASSIFICATION_TYPE":"U","ARG_OF_PERICENTER":"83.9241","MEAN_MOTION_DDOT":"0.0000000000000","FILE":"3650001","PERIAPSIS":"546.172","OBJECT_NAME":"STARLINK-2544","REV_AT_EPOCH":"8505","APOAPSIS":"548.265","TIME_SYSTEM":"UTC","NORAD_CAT_ID":"48297","MEAN_ANOMALY":"276.1920","EPHEMERIS_TYPE":"0","MEAN_ELEMENT_THEORY":"SGP4","TLE_LINE2":"2 48297  53.0533 139.9308 0001511  83.9241 276.1920 15.06398256 85059","TLE_LINE1":"1 48297U 21036X   22313.80617507 -.00001540  00000-0 -84538-4 0  9991","DECAY_DATE":null,"MEAN_MOTION_DOT":"-0.00001540","INCLINATION":"53.0533","REF_FRAME":"TEME","OBJECT_ID":"2021-036X","SITE":"AFETR","PERIOD":"95.592","ECCENTRICITY":"0.00015110","MEAN_MOTION":"15.06398256","LAUNCH_DATE":"2021-04-29","BSTAR":"-0.00008453800000","EPOCH":"2022-11-09T19:20:53.526048","SEMIMAJOR_AXIS":"6925.354","RCS_SIZE":"LARGE","COUNTRY_CODE":"US","OBJECT_TYPE":"PAYLOAD"},{"SITE":"AFETR","PERIOD":"95.593","ECCENTRICITY":"0.00012940","TLE_LINE2":"2 48298  53.0545 139.9620 0001294  73.4307 286.6824 15.06384634 85059","TLE_LINE1":"1 48298U 21036Y   22313.80250173 -.00004551  00000-0 -28696-3 0  9991","DECAY_DATE":null,"INCLINATION":"53.0545","MEAN_MOTION_DOT":"-0.00004551","REF_FRAME":"TEME","OBJECT_ID":"2021-036Y","NORAD_CAT_ID":"48298","MEAN_ANOMALY":"286.6824","EPHEMERIS_TYPE":"0","MEAN_ELEMENT_THEORY":"SGP4","TIME_SYSTEM":"UTC","COUNTRY_CODE":"US","OBJECT_TYPE":"PAYLOAD","EPOCH":"2022-11-09T19:15:36.149472","SEMIMAJOR_AXIS":"6925.396","RCS_SIZE":"LARGE","LAUNCH_DATE":"2021-04-29","BSTAR":"-0.00028696000000","MEAN_MOTION":"15.06384634","CLASSIFICATION_TYPE":"U","ELEMENT_SET_NO":"999","CENTER_NAME":"EARTH","RA_OF_ASC_NODE":"139.9620","GP_ID":"217273371","REV_AT_EPOCH":"8505","APOAPSIS":"548.157","FILE":"3650001","OBJECT_NAME":"STARLINK-2559","PERIAPSIS":"546.365","ARG_OF_PERICENTER":"73.4307","MEAN_MOTION_DDOT":"0.0000000000000"},{"PERIAPSIS":"546.286","FILE":"3650001","OBJECT_NAME":"STARLINK-2557","APOAPSIS":"548.230","REV_AT_EPOCH":"8505","MEAN_MOTION_DDOT":"0.0000000000000","ARG_OF_PERICENTER":"88.9240","ELEMENT_SET_NO":"999","CLASSIFICATION_TYPE":"U","GP_ID":"217273621","RA_OF_ASC_NODE":"139.9575","CENTER_NAME":"EARTH","SEMIMAJOR_AXIS":"6925.393","RCS_SIZE":"LARGE","EPOCH":"2022-11-09T19:10:17.511456","OBJECT_TYPE":"PAYLOAD","COUNTRY_CODE":"US","BSTAR":"-0.00036582000000","LAUNCH_DATE":"2021-04-29","MEAN_MOTION":"15.06385556","OBJECT_ID":"2021-036Z","TLE_LINE2":"2 48299  53.0526 139.9575 0001404  88.9240 271.1910 15.06385556 85057","MEAN_MOTION_DOT":"-0.00005724","TLE_LINE1":"1 48299U 21036Z   22313.79881379 -.00005724  00000-0 -36582-3 0  9994","DECAY_DATE":null,"REF_FRAME":"TEME","INCLINATION":"53.0526","ECCENTRICITY":"0.00014040","SITE":"AFETR","PERIOD":"95.593","TIME_SYSTEM":"UTC","MEAN_ELEMENT_THEORY":"SGP4","NORAD_CAT_ID":"48299","MEAN_ANOMALY":"271.1910","EPHEMERIS_TYPE":"0"}];
